[{"OBJECT_NAME":"ROADS 1","OBJECT_ID":"2025-135H","EPOCH":"2026-03-09T20:30:26.589888","MEAN_MOTION":15.21189252,"ECCENTRICITY":0.00052629,"INCLINATION":97.4546,"RA_OF_ASC_NODE":184.7054,"ARG_OF_PERICENTER":153.667,"MEAN_ANOMALY":206.4834,"EPHEMERIS_TYPE":0,"CLASSIFICATION_TYPE":"U","NORAD_CAT_ID":64535,"ELEMENT_SET_NO":999,"REV_AT_EPOCH":3975,"BSTAR":0.00040940157,"MEAN_MOTION_DOT":9.066e-5,"MEAN_MOTION_DDOT":0},{"OBJECT_NAME":"MAUVE","OBJECT_ID":"2025-276CU","EPOCH":"2026-03-09T17:14:44.951712","MEAN_MOTION":15.19228326,"ECCENTRICITY":5.768e-5,"INCLINATION":97.4273,"RA_OF_ASC_NODE":144.0489,"ARG_OF_PERICENTER":359.247,"MEAN_ANOMALY":0.8764,"EPHEMERIS_TYPE":0,"CLASSIFICATION_TYPE":"U","NORAD_CAT_ID":66756,"ELEMENT_SET_NO":999,"REV_AT_EPOCH":1532,"BSTAR":0.00039937228,"MEAN_MOTION_DOT":8.348e-5,"MEAN_MOTION_DDOT":0}]
