ROADS 1                 
1 64535U 25135H   26068.85447441  .00009066  00000+0  40940-3 0  9998
2 64535  97.4546 184.7054 0005263 153.6670 206.4834 15.21189252 39750
MAUVE                   
1 66756U 25276CU  26068.71857583  .00008348  00000+0  39937-3 0  9994
2 66756  97.4273 144.0489 0000577 359.2470   0.8764 15.19228326 15328
